[{"OBJECT_NAME":"ONEWEB-0315","OBJECT_ID":"2021-075AC","EPOCH":"2026-05-18T02:16:31.698048","MEAN_MOTION":13.12441855,"ECCENTRICITY":0.0002131,"INCLINATION":87.8965,"RA_OF_ASC_NODE":356.6277,"ARG_OF_PERICENTER":90.6076,"MEAN_ANOMALY":269.5296,"EPHEMERIS_TYPE":0,"CLASSIFICATION_TYPE":"U","NORAD_CAT_ID":49101,"ELEMENT_SET_NO":999,"REV_AT_EPOCH":23122,"BSTAR":-0.00083993,"MEAN_MOTION_DOT":-2.89e-06,"MEAN_MOTION_DDOT":0.0},{"OBJECT_NAME":"ONEWEB-0316","OBJECT_ID":"2021-075AD","EPOCH":"2026-05-18T00:51:36.383328","MEAN_MOTION":13.18685604,"ECCENTRICITY":0.0001858,"INCLINATION":87.9168,"RA_OF_ASC_NODE":341.4587,"ARG_OF_PERICENTER":89.2373,"MEAN_ANOMALY":270.8972,"EPHEMERIS_TYPE":0,"CLASSIFICATION_TYPE":"U","NORAD_CAT_ID":49102,"ELEMENT_SET_NO":999,"REV_AT_EPOCH":23323,"BSTAR":0.00032313999999999997,"MEAN_MOTION_DOT":1.4e-06,"MEAN_MOTION_DDOT":0.0},{"OBJECT_NAME":"ONEWEB-0317","OBJECT_ID":"2021-075AE","EPOCH":"2026-05-18T02:21:24.345216","MEAN_MOTION":13.12441969,"ECCENTRICITY":0.0001239,"INCLINATION":87.8966,"RA_OF_ASC_NODE":356.6501,"ARG_OF_PERICENTER":69.1771,"MEAN_ANOMALY":290.949,"EPHEMERIS_TYPE":0,"CLASSIFICATION_TYPE":"U","NORAD_CAT_ID":49103,"ELEMENT_SET_NO":999,"REV_AT_EPOCH":23124,"BSTAR":-0.001114,"MEAN_MOTION_DOT":-3.88e-06,"MEAN_MOTION_DDOT":0.0},{"OBJECT_NAME":"ONEWEB-0318","OBJECT_ID":"2021-075AF","EPOCH":"2026-05-18T00:46:44.901696","MEAN_MOTION":13.18685423,"ECCENTRICITY":0.000204,"INCLINATION":87.9179,"RA_OF_ASC_NODE":341.4583,"ARG_OF_PERICENTER":91.4946,"MEAN_ANOMALY":268.642,"EPHEMERIS_TYPE":0,"CLASSIFICATION_TYPE":"U","NORAD_CAT_ID":49104,"ELEMENT_SET_NO":999,"REV_AT_EPOCH":23319,"BSTAR":0.00010982,"MEAN_MOTION_DOT":5.6e-07,"MEAN_MOTION_DDOT":0.0},{"OBJECT_NAME":"ONEWEB-0319","OBJECT_ID":"2021-075AG","EPOCH":"2026-05-18T04:17:12.413760","MEAN_MOTION":13.17651062,"ECCENTRICITY":0.0002344,"INCLINATION":87.9159,"RA_OF_ASC_NODE":11.835,"ARG_OF_PERICENTER":90.4024,"MEAN_ANOMALY":269.7376,"EPHEMERIS_TYPE":0,"CLASSIFICATION_TYPE":"U","NORAD_CAT_ID":49105,"ELEMENT_SET_NO":999,"REV_AT_EPOCH":22965,"BSTAR":0.00015151999999999999,"MEAN_MOTION_DOT":7.2e-07,"MEAN_MOTION_DDOT":0.0},{"OBJECT_NAME":"ONEWEB-0323","OBJECT_ID":"2021-075AH","EPOCH":"2026-05-18T03:44:21.710112","MEAN_MOTION":13.12440906,"ECCENTRICITY":0.0002195,"INCLINATION":87.8968,"RA_OF_ASC_NODE":356.6205,"ARG_OF_PERICENTER":96.4604,"MEAN_ANOMALY":263.6774,"EPHEMERIS_TYPE":0,"CLASSIFICATION_TYPE":"U","NORAD_CAT_ID":49106,"ELEMENT_SET_NO":999,"REV_AT_EPOCH":23061,"BSTAR":-0.00031084,"MEAN_MOTION_DOT":-9.9e-07,"MEAN_MOTION_DDOT":0.0},{"OBJECT_NAME":"ONEWEB-0329","OBJECT_ID":"2021-075AJ","EPOCH":"2026-05-18T00:50:39.679008","MEAN_MOTION":13.17650682,"ECCENTRICITY":0.0001824,"INCLINATION":87.9159,"RA_OF_ASC_NODE":11.8641,"ARG_OF_PERICENTER":88.0597,"MEAN_ANOMALY":272.0744,"EPHEMERIS_TYPE":0,"CLASSIFICATION_TYPE":"U","NORAD_CAT_ID":49107,"ELEMENT_SET_NO":999,"REV_AT_EPOCH":22961,"BSTAR":0.00039569,"MEAN_MOTION_DOT":1.67e-06,"MEAN_MOTION_DDOT":0.0},{"OBJECT_NAME":"ONEWEB-0330","OBJECT_ID":"2021-075AK","EPOCH":"2026-05-18T03:14:14.593632","MEAN_MOTION":13.17648653,"ECCENTRICITY":0.000169,"INCLINATION":87.9162,"RA_OF_ASC_NODE":11.8638,"ARG_OF_PERICENTER":89.5628,"MEAN_ANOMALY":270.5697,"EPHEMERIS_TYPE":0,"CLASSIFICATION_TYPE":"U","NORAD_CAT_ID":49108,"ELEMENT_SET_NO":999,"REV_AT_EPOCH":22966,"BSTAR":0.0001999,"MEAN_MOTION_DOT":9e-07,"MEAN_MOTION_DDOT":0.0},{"OBJECT_NAME":"ONEWEB-0292","OBJECT_ID":"2021-083A","EPOCH":"2026-05-18T01:48:34.236000","MEAN_MOTION":13.13471257,"ECCENTRICITY":0.0001948,"INCLINATION":87.8933,"RA_OF_ASC_NODE":326.2409,"ARG_OF_PERICENTER":92.4874,"MEAN_ANOMALY":267.6478,"EPHEMERIS_TYPE":0,"CLASSIFICATION_TYPE":"U","NORAD_CAT_ID":49186,"ELEMENT_SET_NO":999,"REV_AT_EPOCH":22697,"BSTAR":-0.00040526,"MEAN_MOTION_DOT":-1.35e-06,"MEAN_MOTION_DDOT":0.0},{"OBJECT_NAME":"ONEWEB-0303","OBJECT_ID":"2021-083B","EPOCH":"2026-05-18T00:41:53.724192","MEAN_MOTION":13.18685075,"ECCENTRICITY":0.0001967,"INCLINATION":87.9172,"RA_OF_ASC_NODE":341.4592,"ARG_OF_PERICENTER":91.1276,"MEAN_ANOMALY":269.0081,"EPHEMERIS_TYPE":0,"CLASSIFICATION_TYPE":"U","NORAD_CAT_ID":49187,"ELEMENT_SET_NO":999,"REV_AT_EPOCH":22600,"BSTAR":6.7641e-05,"MEAN_MOTION_DOT":4e-07,"MEAN_MOTION_DDOT":0.0},{"OBJECT_NAME":"ONEWEB-0306","OBJECT_ID":"2021-083C","EPOCH":"2026-05-18T02:16:35.370912","MEAN_MOTION":13.18685323,"ECCENTRICITY":0.0001619,"INCLINATION":87.9175,"RA_OF_ASC_NODE":341.4321,"ARG_OF_PERICENTER":84.3492,"MEAN_ANOMALY":275.7825,"EPHEMERIS_TYPE":0,"CLASSIFICATION_TYPE":"U","NORAD_CAT_ID":49188,"ELEMENT_SET_NO":999,"REV_AT_EPOCH":22605,"BSTAR":-4.546e-05,"MEAN_MOTION_DOT":-5e-08,"MEAN_MOTION_DDOT":0.0},{"OBJECT_NAME":"ONEWEB-0307","OBJECT_ID":"2021-083D","EPOCH":"2026-05-18T01:40:02.511264","MEAN_MOTION":13.13468471,"ECCENTRICITY":0.0001836,"INCLINATION":87.8947,"RA_OF_ASC_NODE":326.2364,"ARG_OF_PERICENTER":93.6161,"MEAN_ANOMALY":266.5179,"EPHEMERIS_TYPE":0,"CLASSIFICATION_TYPE":"U","NORAD_CAT_ID":49189,"ELEMENT_SET_NO":999,"REV_AT_EPOCH":22697,"BSTAR":-0.00012653,"MEAN_MOTION_DOT":-3.3e-07,"MEAN_MOTION_DDOT":0.0},{"OBJECT_NAME":"ONEWEB-0320","OBJECT_ID":"2021-083E","EPOCH":"2026-05-18T00:56:28.267584","MEAN_MOTION":13.18686666,"ECCENTRICITY":0.0001768,"INCLINATION":87.9169,"RA_OF_ASC_NODE":341.4645,"ARG_OF_PERICENTER":86.2538,"MEAN_ANOMALY":273.8796,"EPHEMERIS_TYPE":0,"CLASSIFICATION_TYPE":"U","NORAD_CAT_ID":49190,"ELEMENT_SET_NO":999,"REV_AT_EPOCH":22600,"BSTAR":0.00011419,"MEAN_MOTION_DOT":5.8e-07,"MEAN_MOTION_DDOT":0.0},{"OBJECT_NAME":"ONEWEB-0321","OBJECT_ID":"2021-083F","EPOCH":"2026-05-18T03:00:50.897376","MEAN_MOTION":13.20766062,"ECCENTRICITY":0.0001618,"INCLINATION":87.9165,"RA_OF_ASC_NODE":280.4299,"ARG_OF_PERICENTER":93.0633,"MEAN_ANOMALY":267.0685,"EPHEMERIS_TYPE":0,"CLASSIFICATION_TYPE":"U","NORAD_CAT_ID":49191,"ELEMENT_SET_NO":999,"REV_AT_EPOCH":23286,"BSTAR":0.0015807,"MEAN_MOTION_DOT":6.56e-06,"MEAN_MOTION_DDOT":0.0},{"OBJECT_NAME":"ONEWEB-0322","OBJECT_ID":"2021-083G","EPOCH":"2026-05-18T01:33:57.161952","MEAN_MOTION":13.13471046,"ECCENTRICITY":0.0001687,"INCLINATION":87.8937,"RA_OF_ASC_NODE":326.2386,"ARG_OF_PERICENTER":75.4506,"MEAN_ANOMALY":284.681,"EPHEMERIS_TYPE":0,"CLASSIFICATION_TYPE":"U","NORAD_CAT_ID":49192,"ELEMENT_SET_NO":999,"REV_AT_EPOCH":22696,"BSTAR":0.00019536,"MEAN_MOTION_DOT":8.4e-07,"MEAN_MOTION_DDOT":0.0},{"OBJECT_NAME":"ONEWEB-0324","OBJECT_ID":"2021-083H","EPOCH":"2026-05-18T02:06:52.925184","MEAN_MOTION":13.18685464,"ECCENTRICITY":0.0001697,"INCLINATION":87.9177,"RA_OF_ASC_NODE":341.4385,"ARG_OF_PERICENTER":91.176,"MEAN_ANOMALY":268.9567,"EPHEMERIS_TYPE":0,"CLASSIFICATION_TYPE":"U","NORAD_CAT_ID":49193,"ELEMENT_SET_NO":999,"REV_AT_EPOCH":22603,"BSTAR":2.4949e-05,"MEAN_MOTION_DOT":2.3e-07,"MEAN_MOTION_DDOT":0.0},{"OBJECT_NAME":"ONEWEB-0325","OBJECT_ID":"2021-083J","EPOCH":"2026-05-18T02:11:43.711296","MEAN_MOTION":13.18685753,"ECCENTRICITY":0.0001896,"INCLINATION":87.9166,"RA_OF_ASC_NODE":341.4494,"ARG_OF_PERICENTER":86.1189,"MEAN_ANOMALY":274.016,"EPHEMERIS_TYPE":0,"CLASSIFICATION_TYPE":"U","NORAD_CAT_ID":49194,"ELEMENT_SET_NO":999,"REV_AT_EPOCH":22604,"BSTAR":-8.599000000000001e-05,"MEAN_MOTION_DOT":-2.1e-07,"MEAN_MOTION_DDOT":0.0},{"OBJECT_NAME":"ONEWEB-0326","OBJECT_ID":"2021-083K","EPOCH":"2026-05-18T00:44:31.221024","MEAN_MOTION":13.18685161,"ECCENTRICITY":0.0002099,"INCLINATION":87.9177,"RA_OF_ASC_NODE":341.4567,"ARG_OF_PERICENTER":90.2189,"MEAN_ANOMALY":269.9183,"EPHEMERIS_TYPE":0,"CLASSIFICATION_TYPE":"U","NORAD_CAT_ID":49195,"ELEMENT_SET_NO":999,"REV_AT_EPOCH":22602,"BSTAR":1.1626e-05,"MEAN_MOTION_DOT":1.7e-07,"MEAN_MOTION_DDOT":0.0},{"OBJECT_NAME":"ONEWEB-0327","OBJECT_ID":"2021-083L","EPOCH":"2026-05-18T00:44:07.270080","MEAN_MOTION":13.18686114,"ECCENTRICITY":0.0002249,"INCLINATION":87.9168,"RA_OF_ASC_NODE":341.4636,"ARG_OF_PERICENTER":88.3368,"MEAN_ANOMALY":271.8022,"EPHEMERIS_TYPE":0,"CLASSIFICATION_TYPE":"U","NORAD_CAT_ID":49196,"ELEMENT_SET_NO":999,"REV_AT_EPOCH":22604,"BSTAR":-5.8039e-05,"MEAN_MOTION_DOT":-1e-07,"MEAN_MOTION_DDOT":0.0},{"OBJECT_NAME":"ONEWEB-0328","OBJECT_ID":"2021-083M","EPOCH":"2026-05-18T01:19:19.623072","MEAN_MOTION":13.13471337,"ECCENTRICITY":0.0001687,"INCLINATION":87.8953,"RA_OF_ASC_NODE":326.2107,"ARG_OF_PERICENTER":94.4074,"MEAN_ANOMALY":265.7247,"EPHEMERIS_TYPE":0,"CLASSIFICATION_TYPE":"U","NORAD_CAT_ID":49197,"ELEMENT_SET_NO":999,"REV_AT_EPOCH":22694,"BSTAR":0.000735,"MEAN_MOTION_DOT":2.81e-06,"MEAN_MOTION_DDOT":0.0},{"OBJECT_NAME":"ONEWEB-0331","OBJECT_ID":"2021-083N","EPOCH":"2026-05-18T00:34:36.363072","MEAN_MOTION":13.18685989,"ECCENTRICITY":0.0002044,"INCLINATION":87.9179,"RA_OF_ASC_NODE":341.4516,"ARG_OF_PERICENTER":95.3746,"MEAN_ANOMALY":264.7619,"EPHEMERIS_TYPE":0,"CLASSIFICATION_TYPE":"U","NORAD_CAT_ID":49198,"ELEMENT_SET_NO":999,"REV_AT_EPOCH":22603,"BSTAR":7.4701e-05,"MEAN_MOTION_DOT":4.2e-07,"MEAN_MOTION_DDOT":0.0},{"OBJECT_NAME":"ONEWEB-0333","OBJECT_ID":"2021-083P","EPOCH":"2026-05-18T01:11:59.949888","MEAN_MOTION":13.13471928,"ECCENTRICITY":0.0001798,"INCLINATION":87.8943,"RA_OF_ASC_NODE":326.2407,"ARG_OF_PERICENTER":89.4715,"MEAN_ANOMALY":270.662,"EPHEMERIS_TYPE":0,"CLASSIFICATION_TYPE":"U","NORAD_CAT_ID":49199,"ELEMENT_SET_NO":999,"REV_AT_EPOCH":22695,"BSTAR":0.00085329,"MEAN_MOTION_DOT":3.24e-06,"MEAN_MOTION_DDOT":0.0},{"OBJECT_NAME":"ONEWEB-0334","OBJECT_ID":"2021-083Q","EPOCH":"2026-05-18T03:26:18.789792","MEAN_MOTION":13.20687136,"ECCENTRICITY":0.0001441,"INCLINATION":87.9221,"RA_OF_ASC_NODE":280.4394,"ARG_OF_PERICENTER":49.7828,"MEAN_ANOMALY":310.3432,"EPHEMERIS_TYPE":0,"CLASSIFICATION_TYPE":"U","NORAD_CAT_ID":49200,"ELEMENT_SET_NO":999,"REV_AT_EPOCH":23282,"BSTAR":0.037654,"MEAN_MOTION_DOT":0.00015329,"MEAN_MOTION_DDOT":0.0}]